start=new Date('2022-10-10T00:00:00.000Z').valueOf();
sats=[{"INCLINATION":"53.2177","OBJECT_TYPE":"PAYLOAD","RCS_SIZE":"LARGE","REF_FRAME":"TEME","EPHEMERIS_TYPE":"0","BSTAR":"0.00018040000000","PERIOD":"95.437","SITE":"AFWTR","ARG_OF_PERICENTER":"34.7649","TLE_LINE1":"1 50207U 21125BD  22282.70115988  .00002584  00000-0  18040-3 0  9995","SEMIMAJOR_AXIS":"6917.868","OBJECT_NAME":"STARLINK-3262","COUNTRY_CODE":"US","OBJECT_ID":"2021-125BD","DECAY_DATE":null,"REV_AT_EPOCH":"4647","MEAN_MOTION":"15.08844135","GP_ID":"214604737","APOAPSIS":"541.264","CENTER_NAME":"EARTH","MEAN_MOTION_DDOT":"0.0000000000000","RA_OF_ASC_NODE":"77.0841","PERIAPSIS":"538.202","EPOCH":"2022-10-09T16:49:40.213632","TLE_LINE2":"2 50207  53.2177  77.0841 0002213  34.7649 325.3488 15.08844135 46472","LAUNCH_DATE":"2021-12-18","MEAN_MOTION_DOT":"0.00002584","ECCENTRICITY":"0.00022130","FILE":"3598879","NORAD_CAT_ID":"50207","TIME_SYSTEM":"UTC","CLASSIFICATION_TYPE":"U","ELEMENT_SET_NO":"999","MEAN_ANOMALY":"325.3488","MEAN_ELEMENT_THEORY":"SGP4"},{"MEAN_ELEMENT_THEORY":"SGP4","MEAN_ANOMALY":"322.6751","ELEMENT_SET_NO":"999","CLASSIFICATION_TYPE":"U","LAUNCH_DATE":"2022-01-06","MEAN_MOTION_DOT":"0.00000196","TLE_LINE2":"2 50803  53.2201   7.4358 0001973  37.4378 322.6751 15.08848625 42144","FILE":"3598879","NORAD_CAT_ID":"50803","TIME_SYSTEM":"UTC","ECCENTRICITY":"0.00019730","EPOCH":"2022-10-09T14:51:45.477504","PERIAPSIS":"538.354","RA_OF_ASC_NODE":"7.4358","APOAPSIS":"541.084","MEAN_MOTION_DDOT":"0.0000000000000","CENTER_NAME":"EARTH","GP_ID":"214605262","MEAN_MOTION":"15.08848625","DECAY_DATE":null,"REV_AT_EPOCH":"4214","COUNTRY_CODE":"US","OBJECT_ID":"2022-001A","SEMIMAJOR_AXIS":"6917.854","TLE_LINE1":"1 50803U 22001A   22282.61927636  .00000196  00000-0  30389-4 0  9990","OBJECT_NAME":"STARLINK-3321","ARG_OF_PERICENTER":"37.4378","SITE":"AFETR","PERIOD":"95.437","REF_FRAME":"TEME","BSTAR":"0.00003038900000","EPHEMERIS_TYPE":"0","OBJECT_TYPE":"PAYLOAD","INCLINATION":"53.2201","RCS_SIZE":"LARGE"},{"DECAY_DATE":null,"REV_AT_EPOCH":"4228","COUNTRY_CODE":"US","OBJECT_ID":"2022-001B","ARG_OF_PERICENTER":"36.4843","TLE_LINE1":"1 50804U 22001B   22282.65332055  .00001538  00000-0  11472-3 0  9992","SEMIMAJOR_AXIS":"6917.878","OBJECT_NAME":"STARLINK-3323","SITE":"AFETR","PERIOD":"95.437","REF_FRAME":"TEME","BSTAR":"0.00011472000000","EPHEMERIS_TYPE":"0","OBJECT_TYPE":"PAYLOAD","INCLINATION":"53.2193","RCS_SIZE":"LARGE","MEAN_ELEMENT_THEORY":"SGP4","MEAN_ANOMALY":"323.6286","ELEMENT_SET_NO":"999","CLASSIFICATION_TYPE":"U","LAUNCH_DATE":"2022-01-06","MEAN_MOTION_DOT":"0.00001538","TLE_LINE2":"2 50804  53.2193 357.2967 0002022  36.4843 323.6286 15.08840941 42281","FILE":"3598879","NORAD_CAT_ID":"50804","ECCENTRICITY":"0.00020220","TIME_SYSTEM":"UTC","EPOCH":"2022-10-09T15:40:46.895520","PERIAPSIS":"538.344","RA_OF_ASC_NODE":"357.2967","APOAPSIS":"541.141","MEAN_MOTION_DDOT":"0.0000000000000","CENTER_NAME":"EARTH","GP_ID":"214604013","MEAN_MOTION":"15.08840941"},{"REV_AT_EPOCH":"4227","DECAY_DATE":null,"OBJECT_ID":"2022-001C","COUNTRY_CODE":"US","SEMIMAJOR_AXIS":"6917.880","TLE_LINE1":"1 50805U 22001C   22282.58340079  .00001437  00000-0  10837-3 0  9992","ARG_OF_PERICENTER":"43.3357","OBJECT_NAME":"STARLINK-3333","SITE":"AFETR","PERIOD":"95.438","BSTAR":"0.00010837000000","EPHEMERIS_TYPE":"0","REF_FRAME":"TEME","RCS_SIZE":"LARGE","OBJECT_TYPE":"PAYLOAD","INCLINATION":"53.2189","MEAN_ELEMENT_THEORY":"SGP4","MEAN_ANOMALY":"316.7770","ELEMENT_SET_NO":"999","CLASSIFICATION_TYPE":"U","ECCENTRICITY":"0.00017220","FILE":"3598879","NORAD_CAT_ID":"50805","TIME_SYSTEM":"UTC","MEAN_MOTION_DOT":"0.00001437","LAUNCH_DATE":"2022-01-06","TLE_LINE2":"2 50805  53.2189 357.6046 0001722  43.3357 316.7770 15.08840279 42276","EPOCH":"2022-10-09T14:00:05.828256","PERIAPSIS":"538.553","RA_OF_ASC_NODE":"357.6046","MEAN_MOTION_DDOT":"0.0000000000000","CENTER_NAME":"EARTH","APOAPSIS":"540.936","GP_ID":"214603760","MEAN_MOTION":"15.08840279"},{"PERIAPSIS":"538.208","RA_OF_ASC_NODE":"357.3072","APOAPSIS":"541.292","CENTER_NAME":"EARTH","MEAN_MOTION_DDOT":"0.0000000000000","MEAN_MOTION":"15.08838352","GP_ID":"214604509","MEAN_ANOMALY":"322.9082","MEAN_ELEMENT_THEORY":"SGP4","CLASSIFICATION_TYPE":"U","ELEMENT_SET_NO":"999","TLE_LINE2":"2 50806  53.2178 357.3072 0002229  37.2065 322.9082 15.08838352 42287","LAUNCH_DATE":"2022-01-06","MEAN_MOTION_DOT":"0.00000473","FILE":"3598879","NORAD_CAT_ID":"50806","TIME_SYSTEM":"UTC","ECCENTRICITY":"0.00022290","EPOCH":"2022-10-09T15:30:11.064096","SITE":"AFETR","PERIOD":"95.438","REF_FRAME":"TEME","EPHEMERIS_TYPE":"0","BSTAR":"0.00004782700000","INCLINATION":"53.2178","OBJECT_TYPE":"PAYLOAD","RCS_SIZE":"LARGE","DECAY_DATE":null,"REV_AT_EPOCH":"4228","COUNTRY_CODE":"US","OBJECT_ID":"2022-001D","TLE_LINE1":"1 50806U 22001D   22282.64596139  .00000473  00000-0  47827-4 0  9999","SEMIMAJOR_AXIS":"6917.885","ARG_OF_PERICENTER":"37.2065","OBJECT_NAME":"STARLINK-3335"},{"TLE_LINE1":"1 50807U 22001E   22282.49876041  .00000223  00000-0  32102-4 0  9999","SEMIMAJOR_AXIS":"6917.874","ARG_OF_PERICENTER":"40.1381","OBJECT_NAME":"STARLINK-3353","OBJECT_ID":"2022-001E","COUNTRY_CODE":"US","REV_AT_EPOCH":"4353","DECAY_DATE":null,"RCS_SIZE":"LARGE","INCLINATION":"53.2170","OBJECT_TYPE":"PAYLOAD","EPHEMERIS_TYPE":"0","BSTAR":"0.00003210200000","REF_FRAME":"TEME","PERIOD":"95.437","SITE":"AFETR","EPOCH":"2022-10-09T11:58:12.899424","NORAD_CAT_ID":"50807","FILE":"3598128","ECCENTRICITY":"0.00019340","TIME_SYSTEM":"UTC","TLE_LINE2":"2 50807  53.2170 357.9968 0001934  40.1381 319.9754 15.08841987 43535","LAUNCH_DATE":"2022-01-06","MEAN_MOTION_DOT":"0.00000223","CLASSIFICATION_TYPE":"U","ELEMENT_SET_NO":"999","MEAN_ANOMALY":"319.9754","MEAN_ELEMENT_THEORY":"SGP4","MEAN_MOTION":"15.08841987","GP_ID":"214566685","CENTER_NAME":"EARTH","MEAN_MOTION_DDOT":"0.0000000000000","APOAPSIS":"541.077","RA_OF_ASC_NODE":"357.9968","PERIAPSIS":"538.401"},{"RCS_SIZE":"LARGE","OBJECT_TYPE":"PAYLOAD","INCLINATION":"53.2186","BSTAR":"0.00018820000000","EPHEMERIS_TYPE":"0","REF_FRAME":"TEME","PERIOD":"95.437","SITE":"AFETR","ARG_OF_PERICENTER":"44.4147","TLE_LINE1":"1 50808U 22001F   22282.57235361  .00002709  00000-0  18820-3 0  9994","SEMIMAJOR_AXIS":"6917.843","OBJECT_NAME":"STARLINK-3355","OBJECT_ID":"2022-001F","COUNTRY_CODE":"US","REV_AT_EPOCH":"4227","DECAY_DATE":null,"GP_ID":"214603514","MEAN_MOTION":"15.08852278","MEAN_MOTION_DDOT":"0.0000000000000","CENTER_NAME":"EARTH","APOAPSIS":"541.052","RA_OF_ASC_NODE":"357.6497","PERIAPSIS":"538.364","EPOCH":"2022-10-09T13:44:11.351904","FILE":"3598879","TIME_SYSTEM":"UTC","NORAD_CAT_ID":"50808","ECCENTRICITY":"0.00019430","LAUNCH_DATE":"2022-01-06","MEAN_MOTION_DOT":"0.00002709","TLE_LINE2":"2 50808  53.2186 357.6497 0001943  44.4147 315.7001 15.08852278 42278","ELEMENT_SET_NO":"999","CLASSIFICATION_TYPE":"U","MEAN_ELEMENT_THEORY":"SGP4","MEAN_ANOMALY":"315.7001"},{"REV_AT_EPOCH":"4227","DECAY_DATE":null,"OBJECT_ID":"2022-001G","COUNTRY_CODE":"US","SEMIMAJOR_AXIS":"6917.894","TLE_LINE1":"1 50809U 22001G   22282.57604190  .00000200  00000-0  30652-4 0  9997","OBJECT_NAME":"STARLINK-3232","ARG_OF_PERICENTER":"40.5779","SITE":"AFETR","PERIOD":"95.438","BSTAR":"0.00003065200000","EPHEMERIS_TYPE":"0","REF_FRAME":"TEME","RCS_SIZE":"LARGE","OBJECT_TYPE":"PAYLOAD","INCLINATION":"53.2186","MEAN_ELEMENT_THEORY":"SGP4","MEAN_ANOMALY":"319.5349","ELEMENT_SET_NO":"999","CLASSIFICATION_TYPE":"U","ECCENTRICITY":"0.00018270","FILE":"3598879","NORAD_CAT_ID":"50809","TIME_SYSTEM":"UTC","LAUNCH_DATE":"2022-01-06","MEAN_MOTION_DOT":"0.00000200","TLE_LINE2":"2 50809  53.2186 357.6351 0001827  40.5779 319.5349 15.08835705 42270","EPOCH":"2022-10-09T13:49:30.020160","PERIAPSIS":"538.495","RA_OF_ASC_NODE":"357.6351","MEAN_MOTION_DDOT":"0.0000000000000","CENTER_NAME":"EARTH","APOAPSIS":"541.022","GP_ID":"214604260","MEAN_MOTION":"15.08835705"},{"ELEMENT_SET_NO":"999","CLASSIFICATION_TYPE":"U","MEAN_ELEMENT_THEORY":"SGP4","MEAN_ANOMALY":"326.9554","EPOCH":"2022-10-09T12:03:30.469536","LAUNCH_DATE":"2022-01-06","MEAN_MOTION_DOT":"0.00001848","TLE_LINE2":"2 50810  53.2177 357.9840 0002082  33.1568 326.9554 15.08846885 42266","FILE":"3597861","NORAD_CAT_ID":"50810","TIME_SYSTEM":"UTC","ECCENTRICITY":"0.00020820","RA_OF_ASC_NODE":"357.9840","PERIAPSIS":"538.284","GP_ID":"214561274","MEAN_MOTION":"15.08846885","APOAPSIS":"541.165","MEAN_MOTION_DDOT":"0.0000000000000","CENTER_NAME":"EARTH","COUNTRY_CODE":"US","OBJECT_ID":"2022-001H","DECAY_DATE":null,"REV_AT_EPOCH":"4226","SEMIMAJOR_AXIS":"6917.859","TLE_LINE1":"1 50810U 22001H   22282.50243599  .00001848  00000-0  13413-3 0  9998","ARG_OF_PERICENTER":"33.1568","OBJECT_NAME":"STARLINK-3348","PERIOD":"95.437","SITE":"AFETR","OBJECT_TYPE":"PAYLOAD","INCLINATION":"53.2177","RCS_SIZE":"LARGE","REF_FRAME":"TEME","BSTAR":"0.00013413000000","EPHEMERIS_TYPE":"0"},{"CLASSIFICATION_TYPE":"U","ELEMENT_SET_NO":"999","MEAN_ANOMALY":"328.8718","MEAN_ELEMENT_THEORY":"SGP4","EPOCH":"2022-10-09T16:39:03.875040","TLE_LINE2":"2 50811  53.2166 357.1180 0002419  31.2418 328.8718 15.08837351 42295","MEAN_MOTION_DOT":"-0.00001739","LAUNCH_DATE":"2022-01-06","FILE":"3598879","TIME_SYSTEM":"UTC","NORAD_CAT_ID":"50811","ECCENTRICITY":"0.00024190","RA_OF_ASC_NODE":"357.1180","PERIAPSIS":"538.080","MEAN_MOTION":"15.08837351","GP_ID":"214605263","APOAPSIS":"541.427","CENTER_NAME":"EARTH","MEAN_MOTION_DDOT":"0.0000000000000","COUNTRY_CODE":"US","OBJECT_ID":"2022-001J","DECAY_DATE":null,"REV_AT_EPOCH":"4229","TLE_LINE1":"1 50811U 22001J   22282.69379485 -.00001739  00000-0 -91186-4 0  9998","ARG_OF_PERICENTER":"31.2418","SEMIMAJOR_AXIS":"6917.888","OBJECT_NAME":"STARLINK-3347","PERIOD":"95.438","SITE":"AFETR","INCLINATION":"53.2166","OBJECT_TYPE":"PAYLOAD","RCS_SIZE":"LARGE","REF_FRAME":"TEME","EPHEMERIS_TYPE":"0","BSTAR":"-0.00009118600000"}];
